CCSDS_OMM_VERS = 2.0
CREATION_DATE  = 
ORIGINATOR     = 

OBJECT_NAME    = SILVERSAT
OBJECT_ID      = 1998-067XV
CENTER_NAME    = EARTH
REF_FRAME      = TEME
TIME_SYSTEM    = UTC
MEAN_ELEMENT_THEORY = SGP/SGP4

EPOCH          = 2026-02-10T16:16:07.005504
MEAN_MOTION    = 15.63566671
ECCENTRICITY   = .00023864
INCLINATION    = 51.6264
RA_OF_ASC_NODE = 202.2831
ARG_OF_PERICENTER = 261.4942
MEAN_ANOMALY   = 98.5782

EPHEMERIS_TYPE = 0
CLASSIFICATION_TYPE = U
NORAD_CAT_ID   = 66909
ELEMENT_SET_NO = 999
REV_AT_EPOCH   = 1095
BSTAR          = .13404234E-2
MEAN_MOTION_DOT = .12837E-2
MEAN_MOTION_DDOT = 0

CCSDS_OMM_VERS = 2.0
CREATION_DATE  = 
ORIGINATOR     = 

OBJECT_NAME    = ISS OBJECT XW
OBJECT_ID      = 1998-067XW
CENTER_NAME    = EARTH
REF_FRAME      = TEME
TIME_SYSTEM    = UTC
MEAN_ELEMENT_THEORY = SGP/SGP4

EPOCH          = 2026-02-10T15:08:52.414944
MEAN_MOTION    = 15.62020589
ECCENTRICITY   = .00013374
INCLINATION    = 51.6255
RA_OF_ASC_NODE = 202.7162
ARG_OF_PERICENTER = 297.8968
MEAN_ANOMALY   = 62.1890

EPHEMERIS_TYPE = 0
CLASSIFICATION_TYPE = U
NORAD_CAT_ID   = 66910
ELEMENT_SET_NO = 999
REV_AT_EPOCH   = 1094
BSTAR          = .1110829E-2
MEAN_MOTION_DOT = .99677E-3
MEAN_MOTION_DDOT = 0

CCSDS_OMM_VERS = 2.0
CREATION_DATE  = 
ORIGINATOR     = 

OBJECT_NAME    = ISS OBJECT XX
OBJECT_ID      = 1998-067XX
CENTER_NAME    = EARTH
REF_FRAME      = TEME
TIME_SYSTEM    = UTC
MEAN_ELEMENT_THEORY = SGP/SGP4

EPOCH          = 2026-02-10T18:34:46.863264
MEAN_MOTION    = 15.64924245
ECCENTRICITY   = .00031137
INCLINATION    = 51.6242
RA_OF_ASC_NODE = 201.4179
ARG_OF_PERICENTER = 297.9049
MEAN_ANOMALY   = 62.1630

EPHEMERIS_TYPE = 0
CLASSIFICATION_TYPE = U
NORAD_CAT_ID   = 66911
ELEMENT_SET_NO = 999
REV_AT_EPOCH   = 1096
BSTAR          = .15123327E-2
MEAN_MOTION_DOT = .153398E-2
MEAN_MOTION_DDOT = 0

CCSDS_OMM_VERS = 2.0
CREATION_DATE  = 
ORIGINATOR     = 

OBJECT_NAME    = ISS OBJECT XY
OBJECT_ID      = 1998-067XY
CENTER_NAME    = EARTH
REF_FRAME      = TEME
TIME_SYSTEM    = UTC
MEAN_ELEMENT_THEORY = SGP/SGP4

EPOCH          = 2026-02-10T15:12:01.621440
MEAN_MOTION    = 15.59046160
ECCENTRICITY   = .00004141
INCLINATION    = 51.6289
RA_OF_ASC_NODE = 203.4896
ARG_OF_PERICENTER = 193.8928
MEAN_ANOMALY   = 166.2053

EPHEMERIS_TYPE = 0
CLASSIFICATION_TYPE = U
NORAD_CAT_ID   = 66912
ELEMENT_SET_NO = 999
REV_AT_EPOCH   = 1092
BSTAR          = .90874093E-3
MEAN_MOTION_DOT = .72377E-3
MEAN_MOTION_DDOT = 0

CCSDS_OMM_VERS = 2.0
CREATION_DATE  = 
ORIGINATOR     = 

OBJECT_NAME    = ISS OBJECT XZ
OBJECT_ID      = 1998-067XZ
CENTER_NAME    = EARTH
REF_FRAME      = TEME
TIME_SYSTEM    = UTC
MEAN_ELEMENT_THEORY = SGP/SGP4

EPOCH          = 2026-02-11T05:47:27.573504
MEAN_MOTION    = 15.49682552
ECCENTRICITY   = .00108095
INCLINATION    = 51.6305
RA_OF_ASC_NODE = 203.0447
ARG_OF_PERICENTER = 101.2058
MEAN_ANOMALY   = 259.0146

EPHEMERIS_TYPE = 0
CLASSIFICATION_TYPE = U
NORAD_CAT_ID   = 67683
ELEMENT_SET_NO = 999
REV_AT_EPOCH   = 68
BSTAR          = .78510456E-3
MEAN_MOTION_DOT = .44191E-3
MEAN_MOTION_DDOT = 0

CCSDS_OMM_VERS = 2.0
CREATION_DATE  = 
ORIGINATOR     = 

OBJECT_NAME    = GXIBA-1
OBJECT_ID      = 1998-067YA
CENTER_NAME    = EARTH
REF_FRAME      = TEME
TIME_SYSTEM    = UTC
MEAN_ELEMENT_THEORY = SGP/SGP4

EPOCH          = 2026-02-11T05:44:45.992544
MEAN_MOTION    = 15.50299598
ECCENTRICITY   = .00126907
INCLINATION    = 51.6305
RA_OF_ASC_NODE = 203.0337
ARG_OF_PERICENTER = 95.6741
MEAN_ANOMALY   = 264.5695

EPHEMERIS_TYPE = 0
CLASSIFICATION_TYPE = U
NORAD_CAT_ID   = 67684
ELEMENT_SET_NO = 999
REV_AT_EPOCH   = 68
BSTAR          = .14334443E-2
MEAN_MOTION_DOT = .83345E-3
MEAN_MOTION_DDOT = 0

CCSDS_OMM_VERS = 2.0
CREATION_DATE  = 
ORIGINATOR     = 

OBJECT_NAME    = CORAL
OBJECT_ID      = 1998-067YB
CENTER_NAME    = EARTH
REF_FRAME      = TEME
TIME_SYSTEM    = UTC
MEAN_ELEMENT_THEORY = SGP/SGP4

EPOCH          = 2026-02-11T05:46:52.443264
MEAN_MOTION    = 15.49803407
ECCENTRICITY   = .00127502
INCLINATION    = 51.6307
RA_OF_ASC_NODE = 203.0427
ARG_OF_PERICENTER = 96.4975
MEAN_ANOMALY   = 263.7466

EPHEMERIS_TYPE = 0
CLASSIFICATION_TYPE = U
NORAD_CAT_ID   = 67685
ELEMENT_SET_NO = 999
REV_AT_EPOCH   = 68
BSTAR          = .87608882E-3
MEAN_MOTION_DOT = .49657E-3
MEAN_MOTION_DDOT = 0

CCSDS_OMM_VERS = 2.0
CREATION_DATE  = 
ORIGINATOR     = 

OBJECT_NAME    = ISS OBJECT YC
OBJECT_ID      = 1998-067YC
CENTER_NAME    = EARTH
REF_FRAME      = TEME
TIME_SYSTEM    = UTC
MEAN_ELEMENT_THEORY = SGP/SGP4

EPOCH          = 2026-02-10T22:02:12.717600
MEAN_MOTION    = 15.49880678
ECCENTRICITY   = .00077542
INCLINATION    = 51.6308
RA_OF_ASC_NODE = 204.6383
ARG_OF_PERICENTER = 72.2403
MEAN_ANOMALY   = 287.9431

EPHEMERIS_TYPE = 0
CLASSIFICATION_TYPE = U
NORAD_CAT_ID   = 67686
ELEMENT_SET_NO = 999
REV_AT_EPOCH   = 63
BSTAR          = .88330818E-3
MEAN_MOTION_DOT = .50112E-3
MEAN_MOTION_DDOT = 0

CCSDS_OMM_VERS = 2.0
CREATION_DATE  = 
ORIGINATOR     = 

OBJECT_NAME    = LEOPARD
OBJECT_ID      = 1998-067YD
CENTER_NAME    = EARTH
REF_FRAME      = TEME
TIME_SYSTEM    = UTC
MEAN_ELEMENT_THEORY = SGP/SGP4

EPOCH          = 2026-02-11T05:47:06.882432
MEAN_MOTION    = 15.49753375
ECCENTRICITY   = .00078465
INCLINATION    = 51.6310
RA_OF_ASC_NODE = 203.0436
ARG_OF_PERICENTER = 74.5029
MEAN_ANOMALY   = 285.6826

EPHEMERIS_TYPE = 0
CLASSIFICATION_TYPE = U
NORAD_CAT_ID   = 67687
ELEMENT_SET_NO = 999
REV_AT_EPOCH   = 60
BSTAR          = .82610323E-3
MEAN_MOTION_DOT = .46605E-3
MEAN_MOTION_DDOT = 0

CCSDS_OMM_VERS = 2.0
CREATION_DATE  = 
ORIGINATOR     = 

OBJECT_NAME    = ISS OBJECT YE
OBJECT_ID      = 1998-067YE
CENTER_NAME    = EARTH
REF_FRAME      = TEME
TIME_SYSTEM    = UTC
MEAN_ELEMENT_THEORY = SGP/SGP4

EPOCH          = 2026-02-10T22:02:18.965184
MEAN_MOTION    = 15.49836472
ECCENTRICITY   = .00077272
INCLINATION    = 51.6308
RA_OF_ASC_NODE = 204.6388
ARG_OF_PERICENTER = 72.3498
MEAN_ANOMALY   = 287.8334

EPHEMERIS_TYPE = 0
CLASSIFICATION_TYPE = U
NORAD_CAT_ID   = 67688
ELEMENT_SET_NO = 999
REV_AT_EPOCH   = 55
BSTAR          = .80312723E-3
MEAN_MOTION_DOT = .45422E-3
MEAN_MOTION_DDOT = 0

